[{"OBJECT_NAME":"STARLINK-5311","OBJECT_ID":"2023-010V","EPOCH":"2026-03-09T23:37:12.408096","MEAN_MOTION":14.98345855,"ECCENTRICITY":0.00028196,"INCLINATION":70.0071,"RA_OF_ASC_NODE":23.7081,"ARG_OF_PERICENTER":254.1785,"MEAN_ANOMALY":105.9063,"EPHEMERIS_TYPE":0,"CLASSIFICATION_TYPE":"U","NORAD_CAT_ID":55288,"ELEMENT_SET_NO":999,"REV_AT_EPOCH":17331,"BSTAR":0.00096810895,"MEAN_MOTION_DOT":0.00011482,"MEAN_MOTION_DDOT":0},{"OBJECT_NAME":"CZ-2D DEB","OBJECT_ID":"2017-060E","EPOCH":"2026-03-09T23:34:37.430688","MEAN_MOTION":14.93647319,"ECCENTRICITY":0.00123991,"INCLINATION":97.5938,"RA_OF_ASC_NODE":76.1834,"ARG_OF_PERICENTER":70.348,"MEAN_ANOMALY":289.9078,"EPHEMERIS_TYPE":0,"CLASSIFICATION_TYPE":"U","NORAD_CAT_ID":44612,"ELEMENT_SET_NO":999,"REV_AT_EPOCH":45207,"BSTAR":0.00055303734,"MEAN_MOTION_DOT":5.798e-5,"MEAN_MOTION_DDOT":0}]
